STARLINK-36840          
1 67850U 26034A   26079.91668981 -.01963641  00000+0 -16440-1 0  9990
2 67850  53.1592 155.1590 0000861  68.5669 232.4960 15.72283004  5715
STARLINK-36348          
1 67851U 26034B   26079.91668981 -.01956656  00000+0 -19567-1 0  9992
2 67851  53.1595 155.2288 0001004  73.0135 193.3834 15.68050718  5661
STARLINK-36276          
1 67852U 26034C   26079.91668981 -.01957518  00000+0 -20577-1 0  9994
2 67852  53.1595 155.2487 0001012  67.6849 188.9766 15.66839571  5667
STARLINK-36785          
1 67853U 26034D   26079.91922627  .00406391  00000+0  19542-2 0  9991
2 67853  53.1574 155.0530 0003176  75.6770 284.4605 15.81016369  5716
STARLINK-36608          
1 67854U 26034E   26079.60237405  .00274095  00000+0  13428-2 0  9992
2 67854  53.1573 156.6317 0000812  95.5534 264.5581 15.80966534  5651
STARLINK-36838          
1 67855U 26034F   26079.91771310  .00301400  00000+0  14668-2 0  9993
2 67855  53.1579 155.0426 0000688 305.6778  54.4181 15.81036758  5714
STARLINK-36843          
1 67856U 26034G   26078.52541332 -.00212234  00000+0 -11055-2 0  9994
2 67856  53.1587 162.0024 0003343 124.5278 235.6060 15.80719083  5492
STARLINK-36828          
1 67857U 26034H   26079.91697292  .00367850  00000+0  17741-2 0  9997
2 67857  53.1580 155.0380 0002125  64.6698 295.4545 15.81055133  5717
STARLINK-36837          
1 67858U 26034J   26079.91668981 -.01931882  00000+0 -14290-1 0  9991
2 67858  53.1589 155.0465 0000743  81.0811 273.9580 15.75605032  5661
STARLINK-36393          
1 67859U 26034K   26079.91472102  .00298358  00000+0  14531-2 0  9990
2 67859  53.1581 155.0220 0001952  72.6746 287.4490 15.81029206  5715
STARLINK-35873          
1 67860U 26034L   26079.91396946  .00322441  00000+0  15680-2 0  9990
2 67860  53.1583 155.0172 0001868  75.9549 284.1681 15.80996979  5746
STARLINK-36325          
1 67861U 26034M   26079.91322209  .00396981  00000+0  19064-2 0  9992
2 67861  53.1583 155.0114 0002009  68.9764 291.1474 15.81070987  5710
